ONEWEB-0531             
1 54146U 22138AK  25282.17449741  .00000026  00000+0  31874-4 0  9996
2 54146  87.9227 324.4924 0002784  90.9250 269.2202 13.20769997146176
ONEWEB-0535             
1 54147U 22138AL  25282.20152139  .00000074  00000+0  15166-3 0  9991
2 54147  87.9280 354.8678 0002075  90.8438 269.2933 13.19724020143735
ONEWEB-0536             
1 54148U 22138AM  25282.16186223  .00000050  00000+0  91702-4 0  9993
2 54148  87.9225 324.5422 0002937  92.3696 267.7774 13.20773229146169
ONEWEB-0527             
1 54642U 22166A   25281.48080630  .00003978  00000+0  95898-2 0  9992
2 54642  87.9164 294.2272 0001922  94.2519 265.8834 13.21862473138285
ONEWEB-0528             
1 54643U 22166B   25282.09268301  .00000211  00000+0  47801-3 0  9993
2 54643  87.9172 294.1079 0001899  94.6568 265.4783 13.21858755138377
ONEWEB-0539             
1 54644U 22166C   25282.05341756 -.00006330  00000+0 -15384-1 0  9995
2 54644  87.9164 294.0823 0001969  88.1845 271.9514 13.21766923138367
ONEWEB-0540             
1 54645U 22166D   25282.05991120 -.00005675  00000+0 -13798-1 0  9990
2 54645  87.9169 294.1197 0001824  89.1885 270.9458 13.21740497138356
ONEWEB-0542             
1 54646U 22166E   25282.06292213 -.00007352  00000+0 -17870-1 0  9998
2 54646  87.9188 294.0791 0001812  84.4138 275.7203 13.21738589138364
